[{"OBJECT_NAME":"CUBESX-HSE 3 (RS42S)","OBJECT_ID":"2023-091N","EPOCH":"2026-03-09T22:57:25.321248","MEAN_MOTION":15.286147,"ECCENTRICITY":0.00127191,"INCLINATION":97.5203,"RA_OF_ASC_NODE":133.4295,"ARG_OF_PERICENTER":86.5376,"MEAN_ANOMALY":273.7318,"EPHEMERIS_TYPE":0,"CLASSIFICATION_TYPE":"U","NORAD_CAT_ID":57178,"ELEMENT_SET_NO":999,"REV_AT_EPOCH":14925,"BSTAR":0.00059055694,"MEAN_MOTION_DOT":0.00016417,"MEAN_MOTION_DDOT":0},{"OBJECT_NAME":"STARLINK-34234","OBJECT_ID":"2025-119R","EPOCH":"2026-03-09T01:37:08.522400","MEAN_MOTION":15.27585996,"ECCENTRICITY":0.00015913,"INCLINATION":43.0018,"RA_OF_ASC_NODE":310.6096,"ARG_OF_PERICENTER":264.1846,"MEAN_ANOMALY":95.8825,"EPHEMERIS_TYPE":0,"CLASSIFICATION_TYPE":"U","NORAD_CAT_ID":64248,"ELEMENT_SET_NO":999,"REV_AT_EPOCH":4407,"BSTAR":0.00060997457,"MEAN_MOTION_DOT":0.00016564,"MEAN_MOTION_DDOT":0}]
